{"type": "FeatureCollection", "features": [ {"type": "Feature", "properties": {"norad_id": 66919, "name": "HULIANWANG DIGUI-109", "group": "last-30-days", "lat": 49.00160586543288, "lon": 179.17034128799332, "alt_km": 877.9157344298301, "timestamp": "2025-12-23T07:45:08.117876+00:00", "meta": {"OBJECT_NAME": "HULIANWANG DIGUI-109", "OBJECT_ID": "2025-285E", "EPOCH": "2025-12-22T22:44:10.129344", "MEAN_MOTION": 14.03727136, "ECCENTRICITY": 0.00079116, "INCLINATION": 50.0075, "RA_OF_ASC_NODE": 75.6455, "ARG_OF_PERICENTER": 326.4909, "MEAN_ANOMALY": 33.5494, "EPHEMERIS_TYPE": 0, "CLASSIFICATION_TYPE": "U", "NORAD_CAT_ID": 66919, "ELEMENT_SET_NO": 999, "REV_AT_EPOCH": 234, "BSTAR": 0.00013508329, "MEAN_MOTION_DOT": 6.2e-07, "MEAN_MOTION_DDOT": 0}, "tle": {"line1": "1 66919U 25285E   25356.94733946  .00000062  00000+0  13508-3 0  9996", "line2": "2 66919  50.0075  75.6455 0007911 326.4909  33.5494 14.03727136  2344"}}, "geometry": {"type": "Point", "coordinates": [179.17034128799332, 49.00160586543288]}}, {"type": "Feature", "properties": {"norad_id": 66920, "name": "HULIANWANG DIGUI-110", "group": "last-30-days", "lat": 48.07650564872372, "lon": -175.05074431622074, "alt_km": 877.4175093450149, "timestamp": "2025-12-23T07:45:08.117886+00:00", "meta": {"OBJECT_NAME": "HULIANWANG DIGUI-110", "OBJECT_ID": "2025-285F", "EPOCH": "2025-12-22T22:43:01.733376", "MEAN_MOTION": 14.03683343, "ECCENTRICITY": 0.00056096, "INCLINATION": 50.0119, "RA_OF_ASC_NODE": 75.648, "ARG_OF_PERICENTER": 323.6124, "MEAN_ANOMALY": 36.4399, "EPHEMERIS_TYPE": 0, "CLASSIFICATION_TYPE": "U", "NORAD_CAT_ID": 66920, "ELEMENT_SET_NO": 999, "REV_AT_EPOCH": 234, "BSTAR": 0.00012094669, "MEAN_MOTION_DOT": 4e-07, "MEAN_MOTION_DDOT": 0}, "tle": {"line1": "1 66920U 25285F   25356.94654784  .00000040  00000+0  12095-3 0  9996", "line2": "2 66920  50.0119  75.6480 0005609 323.6124  36.4399 14.03683343  2340"}}, "geometry": {"type": "Point", "coordinates": [-175.05074431622074, 48.07650564872372]}}, {"type": "Feature", "properties": {"norad_id": 66921, "name": "HULIANWANG DIGUI-111", "group": "last-30-days", "lat": 46.83785988279075, "lon": -169.38544824677516, "alt_km": 878.3716399803861, "timestamp": "2025-12-23T07:45:08.117896+00:00", "meta": {"OBJECT_NAME": "HULIANWANG DIGUI-111", "OBJECT_ID": "2025-285G", "EPOCH": "2025-12-22T22:41:51.924768", "MEAN_MOTION": 14.03632901, "ECCENTRICITY": 0.00066947, "INCLINATION": 50.0123, "RA_OF_ASC_NODE": 75.6471, "ARG_OF_PERICENTER": 327.3994, "MEAN_ANOMALY": 32.6496, "EPHEMERIS_TYPE": 0, "CLASSIFICATION_TYPE": "U", "NORAD_CAT_ID": 66921, "ELEMENT_SET_NO": 999, "REV_AT_EPOCH": 234, "BSTAR": 0.00012623999, "MEAN_MOTION_DOT": 4.8e-07, "MEAN_MOTION_DDOT": 0}, "tle": {"line1": "1 66921U 25285G   25356.94573987  .00000048  00000+0  12624-3 0  9998", "line2": "2 66921  50.0123  75.6471 0006694 327.3994  32.6496 14.03632901  2347"}}, "geometry": {"type": "Point", "coordinates": [-169.38544824677516, 46.83785988279075]}}, {"type": "Feature", "properties": {"norad_id": 66922, "name": "HULIANWANG DIGUI-112", "group": "last-30-days", "lat": 44.747013359596814, "lon": -162.20775800537223, "alt_km": 878.171110701729, "timestamp": "2025-12-23T07:45:08.117907+00:00", "meta": {"OBJECT_NAME": "HULIANWANG DIGUI-112", "OBJECT_ID": "2025-285H", "EPOCH": "2025-12-22T22:40:20.222400", "MEAN_MOTION": 14.03662888, "ECCENTRICITY": 0.0006514, "INCLINATION": 50.0095, "RA_OF_ASC_NODE": 75.634, "ARG_OF_PERICENTER": 338.0735, "MEAN_ANOMALY": 21.989, "EPHEMERIS_TYPE": 0, "CLASSIFICATION_TYPE": "U", "NORAD_CAT_ID": 66922, "ELEMENT_SET_NO": 999, "REV_AT_EPOCH": 234, "BSTAR": 0.00013368963, "MEAN_MOTION_DOT": 6e-07, "MEAN_MOTION_DDOT": 0}, "tle": {"line1": "1 66922U 25285H   25356.94467850  .00000060  00000+0  13369-3 0  9991", "line2": "2 66922  50.0095  75.6340 0006514 338.0735  21.9890 14.03662888  2340"}}, "geometry": {"type": "Point", "coordinates": [-162.20775800537223, 44.747013359596814]}}, {"type": "Feature", "properties": {"norad_id": 66923, "name": "HULIANWANG DIGUI-113", "group": "last-30-days", "lat": 41.94988384608466, "lon": -154.89098619903683, "alt_km": 878.2401527735128, "timestamp": "2025-12-23T07:45:08.117919+00:00", "meta": {"OBJECT_NAME": "HULIANWANG DIGUI-113", "OBJECT_ID": "2025-285J", "EPOCH": "2025-12-22T22:38:38.151168", "MEAN_MOTION": 14.03700802, "ECCENTRICITY": 0.00051276, "INCLINATION": 50.0095, "RA_OF_ASC_NODE": 75.6294, "ARG_OF_PERICENTER": 332.5915, "MEAN_ANOMALY": 27.4718, "EPHEMERIS_TYPE": 0, "CLASSIFICATION_TYPE": "U", "NORAD_CAT_ID": 66923, "ELEMENT_SET_NO": 999, "REV_AT_EPOCH": 234, "BSTAR": 0.00012711011, "MEAN_MOTION_DOT": 5e-07, "MEAN_MOTION_DDOT": 0}, "tle": {"line1": "1 66923U 25285J   25356.94349712  .00000050  00000+0  12711-3 0  9997", "line2": "2 66923  50.0095  75.6294 0005127 332.5915  27.4718 14.03700802  2346"}}, "geometry": {"type": "Point", "coordinates": [-154.89098619903683, 41.94988384608466]}}, {"type": "Feature", "properties": {"norad_id": 66924, "name": "CZ-8A R/B", "group": "last-30-days", "lat": -33.68090324853507, "lon": -74.88142299910044, "alt_km": 781.2789285646986, "timestamp": "2025-12-23T07:45:08.117929+00:00", "meta": {"OBJECT_NAME": "CZ-8A R/B", "OBJECT_ID": "2025-285K", "EPOCH": "2025-12-22T22:19:33.397824", "MEAN_MOTION": 14.3050572, "ECCENTRICITY": 0.01192444, "INCLINATION": 50.0083, "RA_OF_ASC_NODE": 72.7766, "ARG_OF_PERICENTER": 142.6707, "MEAN_ANOMALY": 218.2569, "EPHEMERIS_TYPE": 0, "CLASSIFICATION_TYPE": "U", "NORAD_CAT_ID": 66924, "ELEMENT_SET_NO": 999, "REV_AT_EPOCH": 238, "BSTAR": 5.7393836e-05, "MEAN_MOTION_DOT": -4e-08, "MEAN_MOTION_DDOT": 0}, "tle": {"line1": "1 66924U 25285K   25356.93024766 -.00000004  00000+0  57394-4 0  9993", "line2": "2 66924  50.0083  72.7766 0119244 142.6707 218.2569 14.30505720  2381"}}, "geometry": {"type": "Point", "coordinates": [-74.88142299910044, -33.68090324853507]}}, {"type": "Feature", "properties": {"norad_id": 66925, "name": "STARLINK-35945", "group": "last-30-days", "lat": 15.277456163962217, "lon": 9.289418221852278, "alt_km": 354.72078789640364, "timestamp": "2025-12-23T07:45:08.117939+00:00", "meta": {"OBJECT_NAME": "STARLINK-35945", "OBJECT_ID": "2025-286A", "EPOCH": "2025-12-22T22:00:03.000096", "MEAN_MOTION": 15.72639228, "ECCENTRICITY": 0.00010967, "INCLINATION": 53.159, "RA_OF_ASC_NODE": 359.4817, "ARG_OF_PERICENTER": 100.7305, "MEAN_ANOMALY": 138.1978, "EPHEMERIS_TYPE": 0, "CLASSIFICATION_TYPE": "U", "NORAD_CAT_ID": 66925, "ELEMENT_SET_NO": 999, "REV_AT_EPOCH": 362, "BSTAR": -0.015724128, "MEAN_MOTION_DOT": -0.01875975, "MEAN_MOTION_DDOT": 0}, "tle": {"line1": "1 66925U 25286A   25356.91670139 -.01875975  00000+0 -15724-1 0  9991", "line2": "2 66925  53.1590 359.4817 0001096 100.7305 138.1978 15.72639228  3625"}}, "geometry": {"type": "Point", "coordinates": [9.289418221852278, 15.277456163962217]}}, {"type": "Feature", "properties": {"norad_id": 66926, "name": "STARLINK-35942", "group": "last-30-days", "lat": 13.737913003563987, "lon": 8.03716684978192, "alt_km": 359.8768246447562, "timestamp": "2025-12-23T07:45:08.117949+00:00", "meta": {"OBJECT_NAME": "STARLINK-35942", "OBJECT_ID": "2025-286B", "EPOCH": "2025-12-22T22:00:03.000096", "MEAN_MOTION": 15.70975524, "ECCENTRICITY": 0.00012144, "INCLINATION": 53.1595, "RA_OF_ASC_NODE": 359.4802, "ARG_OF_PERICENTER": 109.5371, "MEAN_ANOMALY": 129.8808, "EPHEMERIS_TYPE": 0, "CLASSIFICATION_TYPE": "U", "NORAD_CAT_ID": 66926, "ELEMENT_SET_NO": 999, "REV_AT_EPOCH": 362, "BSTAR": -0.017024417, "MEAN_MOTION_DOT": -0.01928028, "MEAN_MOTION_DDOT": 0}, "tle": {"line1": "1 66926U 25286B   25356.91670139 -.01928028  00000+0 -17024-1 0  9995", "line2": "2 66926  53.1595 359.4802 0001214 109.5371 129.8808 15.70975524  3626"}}, "geometry": {"type": "Point", "coordinates": [8.03716684978192, 13.737913003563987]}}, {"type": "Feature", "properties": {"norad_id": 66927, "name": "STARLINK-35943", "group": "last-30-days", "lat": 15.243776982384983, "lon": 9.261560275262072, "alt_km": 359.6138740679753, "timestamp": "2025-12-23T07:45:08.117965+00:00", "meta": {"OBJECT_NAME": "STARLINK-35943", "OBJECT_ID": "2025-286C", "EPOCH": "2025-12-22T22:00:03.000096", "MEAN_MOTION": 15.70977058, "ECCENTRICITY": 0.00012196, "INCLINATION": 53.1593, "RA_OF_ASC_NODE": 359.4767, "ARG_OF_PERICENTER": 108.4429, "MEAN_ANOMALY": 132.8938, "EPHEMERIS_TYPE": 0, "CLASSIFICATION_TYPE": "U", "NORAD_CAT_ID": 66927, "ELEMENT_SET_NO": 999, "REV_AT_EPOCH": 362, "BSTAR": -0.017074953, "MEAN_MOTION_DOT": -0.01933212, "MEAN_MOTION_DDOT": 0}, "tle": {"line1": "1 66927U 25286C   25356.91670139 -.01933212  00000+0 -17075-1 0  9993", "line2": "2 66927  53.1593 359.4767 0001219 108.4429 132.8938 15.70977058  3624"}}, "geometry": {"type": "Point", "coordinates": [9.261560275262072, 15.243776982384983]}}, {"type": "Feature", "properties": {"norad_id": 66928, "name": "STARLINK-35944", "group": "last-30-days", "lat": 12.226286543005214, "lon": 6.82931118018732, "alt_km": 360.1507161754589, "timestamp": "2025-12-23T07:45:08.117975+00:00", "meta": {"OBJECT_NAME": "STARLINK-35944", "OBJECT_ID": "2025-286D", "EPOCH": "2025-12-22T22:00:03.000096", "MEAN_MOTION": 15.70976331, "ECCENTRICITY": 0.00012384, "INCLINATION": 53.1593, "RA_OF_ASC_NODE": 359.4842, "ARG_OF_PERICENTER": 110.0677, "MEAN_ANOMALY": 127.4353, "EPHEMERIS_TYPE": 0, "CLASSIFICATION_TYPE": "U", "NORAD_CAT_ID": 66928, "ELEMENT_SET_NO": 999, "REV_AT_EPOCH": 362, "BSTAR": -0.017065208, "MEAN_MOTION_DOT": -0.01932196, "MEAN_MOTION_DDOT": 0}, "tle": {"line1": "1 66928U 25286D   25356.91670139 -.01932196  00000+0 -17065-1 0  9993", "line2": "2 66928  53.1593 359.4842 0001238 110.0677 127.4353 15.70976331  3628"}}, "geometry": {"type": "Point", "coordinates": [6.82931118018732, 12.226286543005214]}}]}